IXPE                    
1 49954U 21121A   24207.91667824  .00006597  00000+0  46647-3 0  9992
2 49954   0.2292 105.5114 0009305 134.9924 241.4456 14.98724756143720
